[{"OBJECT_NAME":"STARLINK-34576","OBJECT_ID":"2025-142F","EPOCH":"2026-03-09T21:21:00.309024","MEAN_MOTION":14.98370737,"ECCENTRICITY":0.00028434,"INCLINATION":70.0018,"RA_OF_ASC_NODE":313.8048,"ARG_OF_PERICENTER":267.5602,"MEAN_ANOMALY":92.5232,"EPHEMERIS_TYPE":0,"CLASSIFICATION_TYPE":"U","NORAD_CAT_ID":64701,"ELEMENT_SET_NO":999,"REV_AT_EPOCH":3950,"BSTAR":0.002065412,"MEAN_MOTION_DOT":0.00024664,"MEAN_MOTION_DDOT":0},{"OBJECT_NAME":"UNKNOWN","OBJECT_ID":"","EPOCH":"2026-03-09T23:24:41.597280","MEAN_MOTION":14.71188189,"ECCENTRICITY":0.01426246,"INCLINATION":88.7425,"RA_OF_ASC_NODE":262.0534,"ARG_OF_PERICENTER":168.9683,"MEAN_ANOMALY":191.4722,"EPHEMERIS_TYPE":0,"CLASSIFICATION_TYPE":"U","NORAD_CAT_ID":270413,"ELEMENT_SET_NO":999,"REV_AT_EPOCH":8470,"BSTAR":0.00084093495,"MEAN_MOTION_DOT":6.097e-5,"MEAN_MOTION_DDOT":0}]
